[{"OBJECT_NAME":"DONGPO 10","OBJECT_ID":"2022-167H","EPOCH":"2026-03-09T22:44:56.137344","MEAN_MOTION":15.322785,"ECCENTRICITY":0.00061655,"INCLINATION":97.685,"RA_OF_ASC_NODE":235.0962,"ARG_OF_PERICENTER":106.9526,"MEAN_ANOMALY":253.2392,"EPHEMERIS_TYPE":0,"CLASSIFICATION_TYPE":"U","NORAD_CAT_ID":54689,"ELEMENT_SET_NO":999,"REV_AT_EPOCH":18015,"BSTAR":0.00049390523,"MEAN_MOTION_DOT":0.00015333,"MEAN_MOTION_DDOT":0},{"OBJECT_NAME":"STARLINK-33634","OBJECT_ID":"2025-063Q","EPOCH":"2026-03-09T23:05:12.246720","MEAN_MOTION":15.30210772,"ECCENTRICITY":0.00014251,"INCLINATION":53.1592,"RA_OF_ASC_NODE":51.0129,"ARG_OF_PERICENTER":99.1503,"MEAN_ANOMALY":260.9659,"EPHEMERIS_TYPE":0,"CLASSIFICATION_TYPE":"U","NORAD_CAT_ID":63377,"ELEMENT_SET_NO":999,"REV_AT_EPOCH":5480,"BSTAR":0.00094310296,"MEAN_MOTION_DOT":0.00027686,"MEAN_MOTION_DDOT":0}]
